[{"OBJECT_NAME":"SITRO-AIS 19","OBJECT_ID":"2024-199AA","EPOCH":"2026-03-09T22:55:52.374720","MEAN_MOTION":14.97361264,"ECCENTRICITY":0.00068965,"INCLINATION":97.3309,"RA_OF_ASC_NODE":274.6556,"ARG_OF_PERICENTER":52.1847,"MEAN_ANOMALY":307.9999,"EPHEMERIS_TYPE":0,"CLASSIFICATION_TYPE":"U","NORAD_CAT_ID":61759,"ELEMENT_SET_NO":999,"REV_AT_EPOCH":12028,"BSTAR":0.00032569983,"MEAN_MOTION_DOT":3.731e-5,"MEAN_MOTION_DDOT":0},{"OBJECT_NAME":"STARLINK-36243","OBJECT_ID":"2025-298C","EPOCH":"2026-03-09T21:28:03.374400","MEAN_MOTION":14.98334013,"ECCENTRICITY":0.00013353,"INCLINATION":70.0023,"RA_OF_ASC_NODE":14.1188,"ARG_OF_PERICENTER":253.4431,"MEAN_ANOMALY":106.6581,"EPHEMERIS_TYPE":0,"CLASSIFICATION_TYPE":"U","NORAD_CAT_ID":67077,"ELEMENT_SET_NO":999,"REV_AT_EPOCH":1324,"BSTAR":0.00033175963,"MEAN_MOTION_DOT":3.868e-5,"MEAN_MOTION_DDOT":0}]
